streetAddress,addressLocality,postalCode,addressCountry,latitude,longitude
Roscrea Bypass,Roscrea,E53 RD76,IE,52.946545,-7.797023
Ennis Road,Kilrush,V15 AA66,IE,52.641820,-9.480620
CULLAHILL,Cullohill,R32 TFR9,IE,52.817186,-7.476880
Dublin Road,Fermoy,P61 PF64,IE,52.145672,-8.277568
Rathangan Road,Monasterevin,W34 HX82,IE,53.143122,-7.056486
Aiden Street,Kiltimagh,F12 E8N0,IE,53.853780,-8.995198
Sandy Row,Castlefinn,F93 XD8V,IE,54.802757,-7.592160
Gort,Fahan,F93 C9NP,IE,55.077934,-7.453494
Carnmore,Oranmore,H91 W9KH,IE,53.303847,-8.942217
Lynn Road,Mullingar,N91 X0PR,IE,53.515429,-7.342169
Dublin Road,Ardee,A92 H2NA,IE,53.850380,-6.538794
Monaghan Road,Cork,T12 H9CF,IE,51.896930,-8.457835
Main Street,Inishannon,T12 C6VA,IE,51.765596,-8.660541
New Ring Road,Castlebar,F23 R667,IE,53.854204,-9.305842
Donegal Road,Killybegs,F94 XDP7,IE,54.644440,-8.432342
Donegal Road,Ballybofey,F93 A6C1,IE,54.794961,-7.795010
Loughanure,Annagry,F94 T44T,IE,54.998406,-8.289396
Carnew Road,Gorey,Y25 W9W2,IE,52.671948,-6.317970
Blackhorse,Drinagh,Y35 PX2D,IE,52.299997,-6.458841
Mulranney Road,Newport,F28 F8X0,IE,53.887570,-9.545234
Ennis Road,Kilmihill,V15 AV63,IE,52.720772,-9.317487
Cotteen,Derrybeg,F92 HH0V,IE,55.077434,-8.290945
Gort Road,Ennis,V95 YE89,IE,52.852760,-8.983232
Prior Park,Clonmel,E91 DY07,IE,52.360463,-7.700418
LissaRoada,Lissarda,P14 D328,IE,51.851936,-8.865371
Ambassador Centre,Dooradoyle,V94 C8HT,IE,52.636740,-8.654375
Farrahy Road,Kildorrery,P67 FX67,IE,52.245626,-8.429357
Roscrea Road,Templemore,E41 YC80,IE,52.804365,-7.831206
N84,Headford,H91 ECK1,IE,53.468597,-9.106120
Lynn Industrial Est,Mullingar,N91 RFC8,IE,53.520294,-7.344937
Doonard,Craughwell,H91 EH2H,IE,53.227109,-8.731302
Rossmount,New Ross,Y34 AW63,IE,52.405497,-6.935425
Dublin Road,Carrick-on Shannon,N41 Y4D8,IE,53.943885,-8.070947
Port Road,Letterkenny,F92 VWV9,IE,54.952276,-7.724962
Dundalk Road,Carrickmacross,A81 KX03,IE,53.969037,-6.700901
Dublin Road,Dundalk,A91 YN3F,IE,53.988305,-6.398265
"Aghaboys, Ballymascanlon",Dundalk,A91 HN0C,IE,54.034400,-6.374079
Cappanilly,Borrisoleigh,E41 X4E8,IE,52.754402,-7.962455
Castlemaine Rd,Castlemaine,V93 VF50,IE,52.164346,-9.700608
Youghal Road,Dungarvan,X35 XT71,IE,52.083822,-7.634146
Main Street,Balla,F23 HW31,IE,53.805376,-9.130932
St. Mary's Road,Edenderry,R45 PY95,IE,53.335936,-7.062100
Doonan,Donegal Town,F94 RKP5,IE,54.656379,-8.118280
Chapel St,Dunmanaway,P47 K683,IE,51.723974,-9.107553
RIVERSIDE GROVE,Riverstick,P43 W680,IE,51.771884,-8.495705
Brackhill,Castlemaine,V93 VF50,IE,52.164576,-9.701455
Tullamore Road,Kilbeggan,N91 FNV0,IE,53.363131,-7.496679
Ardnaglass,Pettigo,F94 V9PY,IE,54.552498,-7.833842
Mell,Drogheda,A92 XW3K,IE,53.718147,-6.364331
Abbey Road,Thurles,E41 F9N1,IE,52.675660,-7.827290
Creighanroe,Castleblayney,A75 PK66,IE,54.184779,-6.735312
Moybridge,Emyvale,H18 DW95,IE,54.400106,-6.977357
Waterford Road,Clonmel,E91 H5K6,IE,52.359634,-7.660067
Leitrim Road,Carrick-on-shannon,N41 A5D5,IE,53.948513,-8.091797
"Moneen, Westport Rd",Louisberg,F28 AD65,IE,53.765863,-9.791929
Neale Road,Ballinrobe,F31 Y009,IE,53.616515,-9.222965
Patrick Street,Castlerea,F45 HP26,IE,53.762117,-8.486273
Crowe St,Crowe Street,H91 FR8A,IE,53.070425,-8.821765
New Ring Road,Castlebar,F23 Y673,IE,53.848293,-9.301645
Kilbride,Dublin Road,F12 C6E8,IE,53.942340,-8.937798
Bannagher Road,Birr,R42 X585,IE,53.102327,-7.915125
Brackernagh,Ballinasloe,H53 V4H0,IE,53.324829,-8.237213
Mountmellick Road,Portlaoise,R32 T2YA,IE,53.050958,-7.320686
Main Street,Dublin 15,D15 AX2N,IE,53.390732,-6.381603
Abbeytrinity Road,Tuam,H54 YK54,IE,53.513944,-8.856985
Racecourse Road,Roscommon,F42 YX00,IE,53.641564,-8.211157
Dublin Road,Camphill,H62 NP89,IE,53.201100,-8.557070
Roscommon Road,Athlone,N37 X0V6,IE,53.426779,-7.960140
Moness,Burt,F93 NY7P,IE,55.032063,-7.454028
Ford Centre,Knocklong,V35 D293,IE,52.437688,-8.411732
Millbrae,Carndonagh,F93 TDF4,IE,55.248672,-7.263945
Clonard Rd,Clonard Little,Y35 XND4,IE,52.330195,-6.494048
Westport Road,Clifden,H71 E337,IE,53.489372,-10.020615
Hempfield,Enniscorthy,Y21 DW01,IE,52.508362,-6.558417
Circular Road,Breaffy Road,F26 E9X0,IE,54.117055,-9.155255
Castle Road,Blackrock,T12 CXD7,IE,51.896786,-8.420792
Corgrigg,Foynes,V94 W62W,IE,52.607697,-9.101782
Dock Rd,Limerick,V94 P2TH,IE,52.656075,-8.646819
Limerick Road,Mallow,P51 NX3F,IE,52.146570,-8.656280
Moville,Carndonagh,F93 DW6N,IE,55.188374,-7.045461
Portlaoise Road,Graiguecullen,R93 Y3Y7,IE,52.840361,-6.946371
Killarney Road,Kenmare,V93 WYK5,IE,51.884160,-9.588340
Athone Road,Roscommon,F42 RY88,IE,53.628990,-8.186484
Lissycasey,Ennis,V95 A46D,IE,52.740310,-9.170713
Bundoran Road,Tullaghan,F91 A03V,IE,54.468114,-8.328901
Ballytrasna,Little Island,T45 FK75,IE,51.903769,-8.351873
Upper Church Street,Listowel,V31 DW99,IE,52.448141,-9.478240
Main Street,Patrickswell,V94 X4KA,IE,52.596804,-8.710371
Kilmacrennan Road,Letterkenny,F92 AKW3,IE,54.977051,-7.725498
Kylemore,Connemara,H91 N5Y6,IE,53.563416,-9.836345
O'Leary's Filling Station,Blarney,T23 HY50,IE,51.925371,-8.609280
Emo,Portlaoise,R32 A256,IE,53.092352,-7.179380
Main Street,Ballymahon,N39 R8X9,IE,53.566951,-7.769199
Falcarragh Service Station,Falcarragh,F92 R2VN,IE,55.137240,-8.098946
Dublin Road,Trim,C15 V4KW,IE,53.553097,-6.761237
Kinvara,Galway,H91 Y8DD,IE,53.139044,-8.941202
Main Street,Dromore West,F26 P2Y0,IE,54.249353,-8.873922
Gortahork,Letterkenny,F92 DHD9,IE,55.120500,-8.133505
Ballinlough Road,Ballyhaunis,F35 C854,IE,53.761330,-8.757703
Church Road,Greystones,A63 Y825,IE,53.149609,-6.071084
Iveragh Road,Killorglin,V93 H3VP,IE,52.106272,-9.793376
"Junction 23, M7",Moneygall,E53 F342,IE,52.909547,-7.950872
Strandhill road,Lareasa,F91 C79E,IE,54.270840,-8.582462
Main Street,Muff,F93 P2FV,IE,55.069466,-7.268442
Forthenry,Killaloe,V94 TR9X,IE,52.791425,-8.433636
Tullamore Road,Birr,R42 ND74,IE,53.102924,-7.906618
COROFIN,Corofin,H54 YF77,IE,53.437738,-8.861668
Derrymihan,Castletownbere,P75 AX79,IE,51.653360,-9.882607
SCARTAGLEN,Scartaglen,V93 XD61,IE,52.179100,-9.406290
Main Street,Ballingarry,V94 W4AY,IE,52.471811,-8.860620
Moorefield Road,Newbridge,W12 YF59,IE,53.176052,-6.803319
"Kilgorrive, Creagh",Ballinasloe,H53 Y5D0,IE,53.328888,-8.184890
"Bohercrow, Limerick rd",Tipperary Town,E34 HY24,IE,52.479720,-8.175528
Dublin Road,Knockanork,H12 V6H9,IE,53.964833,-7.229548
Charleville Road,Tullamore,R35 W6F8,IE,53.256239,-7.513588
"Dublin Road,",Clane,W91 YN28,IE,53.293374,-6.686523
Navan Rd,Dublin 15,D15 R26R,IE,53.378256,-6.349680
Dundalk Road,Dunleer,A92 WP22,IE,53.835285,-6.393948
Clara Road,Tullamore,R35 X0Y1,IE,53.278830,-7.498830
Dublin Road,Dundalk,A91 Y7WH,IE,53.969258,-6.389014
Lisduff,Virginia,A82 A0E2,IE,53.798911,-7.032177
Arklow Road,Gorey,Y25 T6K0,IE,52.679110,-6.287429
Callan Road,Kilkenny,R95 RV0C,IE,52.643319,-7.262237
Limerick Road,Nenagh,E45 FC44,IE,52.861619,-8.212318
Church Road,Newport,V94 X5NK,IE,52.712235,-8.409758
Market Street,Skibereen,P81 YV61,IE,51.547208,-9.263864
Cork Road,Bandon,P72 RR83,IE,51.752540,-8.716825
"Old Galway Road, Monksland,",Athlone,N37 P5Y9,IE,53.421443,-7.973837
Rochestown Road,Rochestown,T12 V4FP,IE,51.877129,-8.395923
Shinnagh,Ratoath,P51 HY8K,IE,52.084375,-9.220893
Tuam Road,Ballybane,H91 ENY3,IE,53.292153,-9.018944
"Clash Cross, Rathass",Tralee,V92 HX5K,IE,52.268977,-9.687212
15-21 Ushers Quay,Dublin 8,D08 X2P8,IE,53.345454,-6.277793
Ballybrit Service Station,Ballybrit,H91 TY4X,IE,53.290670,-9.006834
Main Street,Caherconlish,V94 NT9D,IE,52.593530,-8.472269
Dock Road,Limerick,V94 DH52,IE,52.660637,-8.635099
North Commons,Ard Fert,V92 A2XA,IE,52.323771,-9.777809
Dalys,Waterville,V23 H902,IE,51.849837,-10.171474
Bunclody Road,Tullow,R93 C4E0,IE,52.798183,-6.743511
Bective Street,Kells,A82 E8R2,IE,53.722915,-6.880947
Seamus Quirke Road,Galway City,H91 K76D,IE,53.277498,-9.072153
Carrickmacross Road,Shercock,A81 Y827,IE,53.997835,-6.891507
Moore Street,Cappamore,V94 P3VR,IE,52.614609,-8.336926
R741,Crosstown,Y35 H0KW,IE,52.359988,-6.452813
Castlefinn Road,Lifford,F93 HN2W,IE,54.828982,-7.484897
High Street,Gowran,R95 D26E,IE,52.630720,-7.061857
Castlebar Road,Westport,F28 FP76,IE,53.803759,-9.495199
MILFORD ROAD,Carrigart,F92 KX29,IE,55.176172,-7.786134
RAILWAY ROAD,Buncrana,F93 DFH1,IE,55.128096,-7.457023
Moneen N5,Castlebar,F23 T189,IE,53.856648,-9.285030
Breaffy Road,Castlebar,F23 X562,IE,53.850071,-9.280347
O Moore Street,Tullamore,R35 YN97,IE,53.270643,-7.491444
Athlone Road,Moate,N37 T1W3,IE,53.395549,-7.733577
Main street,Laghey,F94 HYD7,IE,54.615309,-8.089878
Old Dublin Road,Wexford,Y21 X3D7,IE,52.521783,-6.558425
"Junction 20, Dromad",Ravensdale,A91 AYW7,IE,54.096758,-6.363290
Letterkenny Road,Lifford,F93 RKW6,IE,54.833529,-7.487499
Emo,Portlaoise,R32,IE,53.092352,-7.179380
.,Cullohill,R32 TFR9,IE,52.817186,-7.476880
"Junction 23, M7",Moneygall,E53 F342,IE,52.884748,-7.944918
Ballybrown,Clarina,V94 PTD2,IE,52.632506,-8.730756
Kilcullen,Co Kildare,R56 HN60,IE,53.138720,-6.738293
Station Road,Kingscourt,A82 TX88,IE,53.905525,-6.803052
Crookstown,Co Cork,P14 HV27,IE,51.821800,-8.856490
Cavan Road,Kells,A82 E7F3,IE,53.731464,-6.888953
Monastery Road,Doon,V94 X8N6,IE,52.604339,-8.244744
Ballyliffen,Ballyliffen,F93 EKK7,IE,55.274338,-7.399475
Tuam Road,Co Galway,H91 X5PW,IE,53.291783,-9.020564
Chapel Street,Slane,C15 EP22,IE,53.713727,-6.536308
Kiltorcan Business Park,Ballyhale,R95 WF86,IE,52.468048,-7.199672
Dublin Road,Castletroy,V94 KR6W,IE,52.664997,-8.581572
N85 Ennis Road,Ennistymon,V95 EH59,IE,52.938244,-9.289056
Main Street,Rhode,R35 D2K1,IE,53.350227,-7.198907
Bridge Road,Belmullet,F26 A5D2,IE,54.226129,-9.990370
Staholmog,Carlanstown,A82 V261,IE,53.775418,-6.795200
Moybridge,Emyvale,H18 EN84,IE,54.392950,-6.973610
Cavan Road,Ballinagh,H12 DK10,IE,53.933250,-7.408090
The Hatchet Inn,Barstown,A86 NY13,IE,53.451578,-6.595928
Tralee Road,Abbeydorney,V92 CY20,IE,52.346028,-9.687520
St. Patricks Street,Ballybay,A75 YR12,IE,54.139383,-6.907939
Limerick Road,Charleville,P56 HY53,IE,52.360557,-8.682347
Abbeytrinity Road,Tuam,H54,IE,53.513944,-8.856985
Gort Road,Loughrea,H62 H728,IE,53.198800,-8.575570
Umricam,Buncrana,F93 PD9D,IE,55.160400,-7.423100
Ballinasloe,Galway,H53 PX61,IE,53.435539,-8.437550
Castlebar Road,Westport,F28 FP76,IE,53.435539,-8.437550
Brackernagh,Brackernagh,H53 V4H0,IE,53.324829,-8.237213
Ennis Road,Limerick,V94 PAV9,IE,52.666471,-8.642338
"Station Rd, Cortober",Carrick On Shannon,N41 A215,IE,53.938640,-8.107920
Blackwater,Clare,V94 RKT0,IE,52.700790,-8.601558
Clonmel Road,Carrick on Suir,E32 FC78,IE,52.348700,-7.423500
Neale Road,Ballinrobe,F31 Y009,IE,53.616515,-9.222965
Ardrum,Ballinamore,N41  FA36,IE,54.040677,-7.831310
Ballyboden Road,Rathfarnham,D16 A2V9,IE,53.284435,-6.295185
Finglas Road,Glasnevin,D11 WD9H,IE,53.371220,-6.280821
Fonthill Road South,Clondalkin,D22 N9R3,IE,53.314165,-6.393867
College Road,Galway,H91 E3TW,IE,53.281300,-9.034820
Dunmore Road,Waterford,X91 A52P,IE,52.248639,-7.087914
Merrion Rd,Merrion,D04 Y8V0,IE,53.318269,-6.210878
Manor Street,Waterford,X91 ADP9,IE,52.253170,-7.115279
Blessington Rd,Tallaght,D24 RVX7,IE,53.274486,-6.410408
Park Rd,Killarney,V93 X40Y,IE,52.060225,-9.498340
"Omni Park Shopping Centre, Swords Road",Santry,D09 Y6K4,IE,53.393305,-6.246878
Donaghmede Shopping Centre,Donaghmede,D13 H2K2,IE,53.395763,-6.161525
Butterfield Avenue,Rathfarnham,D14 W4C9,IE,53.295311,-6.298685
Dock Rd,Shannonbridge,V94 C59A,IE,52.658168,-8.640047
Bohermore,Galway,H91 PR80,IE,53.282200,-9.038420
Kinsale Road,Cork,T12 Y1YY,IE,51.871929,-8.470100
Templeville Road,Templeogue,D6W KT50,IE,53.304395,-6.314022
Naas Road,Kill,W91 TP38,IE,53.253426,-6.568887
Green Lane,Rathnapish,R93 X6Y7,IE,52.839981,-6.918928
Arden Road,Tullamore,R35 R7V0,IE,53.291342,-7.496768
Abbeyleix road,Portlaoise,R32 FR5P,IE,53.032570,-7.302304
Newcastle Road,Galway,H91 YKF3,IE,53.281860,-9.065096
West end,Ballincollig,P31 KP48,IE,51.887878,-8.594773
Brideswell,Athlone,N37 N2T6,IE,53.420860,-7.926545
Caherdavin,Caherdavin,V94 TX8Y,IE,52.671763,-8.665297
5 Malahide Rd,Beaumont,D05 H6R3,IE,53.376122,-6.218017
Tallaght Bypass Road,Tallaght,D24 XYY0,IE,53.286943,-6.345659
Tullyvarraga,Shannon,V14 K201,IE,52.712644,-8.875314
"Ardrostig, Bandon Road",Bishoptown,T12 AYF8,IE,51.872788,-8.523501
Foxford Road,Ballina,F26 F2N5,IE,54.096200,-9.165070
Maybury Road Tallaght,Tallaght,D24 W82H,IE,53.297914,-6.363377
Kennelsfort Rd,Johnstown,D20 X567,IE,53.349685,-6.377587
"R148, Rossan",Kinnegad,N91 F2VA,IE,53.451233,-7.093971
89 Glasnevin Ave,Ballymun,D11 TFN0,IE,53.390006,-6.272403
14 Dundrum Rd,Dundrum,D14 Y0E1,IE,53.294701,-6.246390
Lissenhall,Swords,K67 N8Y1,IE,53.486955,-6.198046
Roxboro Road,Limerick,V94 WFX2,IE,52.648830,-8.618004
"Main St, Haylands",Blessington,W91 EV99,IE,53.172894,-6.530119
The Quay,New Ross,Y34 N400,IE,52.391735,-6.949466
Castlecomer Rd,Bleach Green,R95 EA3C,IE,52.666291,-7.252361
Durrow Road,Abbelyeix,R32 TYN0,IE,52.908339,-7.352189
Howth Road,Raheny,D05 E6K5,IE,53.380289,-6.160938
Castleknock Road,Castleknock,D15 HHK3,IE,53.372987,-6.361914
Killeely More,Kilcolgan,H91 VP1H,IE,53.208698,-8.868650
Bundoran Rd,Ballytivnan,F91 HH2Y,IE,54.280341,-8.472538
Dublin Road,Bray,A98 P9X2,IE,53.210011,-6.116018
Kickham Street,Thurles,E41 F9W9,IE,52.680377,-7.805488
Proudstown Road,Navan,C15 F2DH,IE,53.663072,-6.680254
"N11 Southbound, Kilmacanogue",Kilmacanogue,A98 D6Y4,IE,53.169740,-6.135617
Old Belgard Road,Tallaght,D24 XF6T,IE,53.298030,-6.372006
North Road,Finglas,D11 R9TY,IE,53.399429,-6.307138
146 Cabra Rd,Dublin,D07 XY8E,IE,53.361263,-6.291195
Bracetown,Clonee,D15 W9YX,IE,53.431155,-6.461174
Galway Rd,Tuam,H54 YK54,IE,53.510400,-8.865380
Cork Road,Midleton,P25 KV76,IE,51.914315,-8.184201
Nutgrove Way,Rathfarnham,D14 Y0T0,IE,53.290721,-6.268595
The Square,Tallaght,D24 X54A,IE,53.285311,-6.374969
Taylor's Lane,Rathfarnham,D16 N9C2,IE,53.281550,-6.289579
Greenhills Road,Tallaght,D24 N5YD,IE,53.296101,-6.354150
Rochestown Avenue,Dun Laoghaire,A96 R2R9,IE,53.270508,-6.142076
Hartstown Road,Hartstown,D15 YP3F,IE,53.392860,-6.418946
Tivoli,Cork,T23 D9PF,IE,51.903126,-8.428673
Rathass,Tralee,V92 H292,IE,52.265035,-9.678661
Ballymun Road,Santry,D09 W1K6,IE,53.403221,-6.264650
"Miltonsfields, Dublin Road",Swords,K67 R8C7,IE,53.453422,-6.224141
Enniskerry Road,Kilternan,D18 H9X9,IE,53.235653,-6.192657
East Douglas Street,Douglas,T12 K8NR,IE,51.878010,-8.436309
Donnybrook Road,Dublin,D04 K3T8,IE,53.320488,-6.234107
"Broughan, The Ward",Dunsoghly,D11 C3WC,IE,53.426858,-6.329049
Mounthawk,Tralee,V92 R6XC,IE,52.283595,-9.726984
3 Ulverton Road,Dalkey,A96 A4N8,IE,53.278825,-6.107144
Lucan Road,Lucan,K78 R6T3,IE,53.356568,-6.447940
"Topaz Building, Taney Road",Mountanville,D14 W0H2,IE,53.292749,-6.230447
Navan Rd,Mulhuddart,D15 X2CT,IE,53.402200,-6.396876
"Lakeview Service Station, Lakeview",Midleton,P25 N407,IE,51.905163,-8.167377
Waterford Road,Kilkenny,R95 WVX9,IE,52.640800,-7.248640
Castlecomer Rd,Bleach Green,R95 X5DT,IE,52.660919,-7.249822
Summerhill Road,Dunboyne,A86 T046,IE,53.420057,-6.476476
"Polefield Service Station, Commons Road",Cork,T23 W0XW,IE,51.916222,-8.474085
"College View, Limerick Road",Ennis,V95 YEY5,IE,52.830874,-8.979335
"Dublin Rd, Cavan",Cavan,H12 K6C9,IE,53.984808,-7.329075
Coolfore,Ashbourne,A84 KP90,IE,53.552989,-6.435858
"Dublin Port Company Service Station, Pro",Dublin Port,D03 W0Y8,IE,53.353907,-6.213970
"Brownsbarn Drive, Citywest Business Camp",Dublin,D24 N40K,IE,53.295102,-6.430928
Commons Road,Blackpool,T23 FRCO,IE,51.920155,-8.482479
Corbally Rd,Limerick,V94 VPN8,IE,52.670555,-8.616432
Tullow Rd,Carlow,R93 F7X3,IE,52.832007,-6.909305
Cullinagh,Newcastlewest,V42 AD72,IE,52.444509,-9.073094
Main Street,Grange,F91 E6DX,IE,54.390032,-8.528252
Cork Road,Carrigaline,P43 FH79,IE,51.819940,-8.391860
Tralee Road,Castleisland,V92 THP5,IE,52.231899,-9.468976
Fairyhouse Rd,Ratoath,A85 FX02,IE,53.488972,-6.471612
Garryspillane,KNOCKLONG,V35 V677,IE,52.411556,-8.378583
Clonmel Road,Carrick on Suir,E32 FC78,IE,52.348646,-7.423504
Cloghore,Ballyshannon,F94 D68F,IE,54.477123,-8.096818
Cashel,Achill,F28 Y0H9,IE,53.952631,-9.971150
Malahide Road,Artane,D05 K7P4,IE,53.381814,-6.208201
15 Navan Road,Dublin,D15 K3VW,IE,53.377970,-6.350977
Tallaght By Pass,Tymon South,D24 PD7E,IE,53.289268,-6.336090
Kill North,Kill,W91 XF97,IE,53.248316,-6.596103
Dublin Road,Bray,A98 EK25,IE,53.212454,-6.118698
Sandford Road,Ranelagh,D06 W2C0,IE,53.319983,-6.243708
Dublin Road,Drogheda,A92 N24D,IE,53.713011,-6.339240
"Ninth Lock Service Station, 2 Ninth Lock",Clondalkin,D22 E6R2,IE,53.329606,-6.397821
232 Clontarf Road,Clontarf,D03 EH72,IE,53.358505,-6.191467
Straffan Road,Maynooth,W23 V489,IE,53.370250,-6.590200
Dublin Road,Deerpark,R93 D6D5,IE,52.845953,-6.910993
Bray Road,Cabinteely,D18 Y9E4,IE,53.255134,-6.144338
"Greygates, Stillorgan Road",Mount Merrion,A94 H3K4,IE,53.295386,-6.204121
Grosvenor Road,Rathmines,D06 A9P4,IE,53.320983,-6.268050
Main Street,Dublin,K36 H006,IE,53.450671,-6.151992
12 Saint Peter's Road,Dublin 12,D12 KP9N,IE,53.310499,-6.325628
Strand Road,Sandymount,D04 W3C4,IE,53.324073,-6.207105
59-63 Ballymun Road,Ballymun,D09 X6K7,IE,53.381863,-6.266117
Lucan-By-Pass (Dublin Bound),Dublin,D20 WN96,IE,53.356160,-6.375150
Naas Road,Rathcoole,D24 EAX8,IE,53.283177,-6.468302
Bray Road,Greystones,A63 W0X9,IE,53.151797,-6.081331
Richmond Road,Ballybough,D03 X2P9,IE,53.362439,-6.242605
Naas Road,Clondalkin,D22 P9T8,IE,53.314873,-6.383962
Lower Kimmage Road,Kimmage,D6W VY44,IE,53.317197,-6.292863
Ballymurphy,Dunshaughlin,A85 FC78,IE,53.498450,-6.530490
Grange Road,Rathfarnham,D14 F1W3,IE,53.289515,-6.282979
Trim Rd,Dillonsland,C15 HW26,IE,53.642823,-6.687705
Crofton Road,DÃºn Laoghaire,A96 W0H4,IE,53.295557,-6.147706
Old Bray Road,Foxrock,D18 AK58,IE,53.256276,-6.145999
"N4 East Service Station, Clongowney",Mullingar,N91 HV25,IE,53.521020,-7.289890
"N4 West Service Station, Clongowney",Mullingar,N91 PFY9,IE,53.519320,-7.289080
"N11 Northbound, Kilmacanogue",Kilmacanogue,A98 R9K5,IE,53.168970,-6.136344
"The Hill, Lucan Road Old",Palmerstown,D20 CY82,IE,53.353010,-6.363795
"North Road Service Station, North Road",Drogheda,A92 D2FE,IE,53.723610,-6.363501
Thomondgate,Limerick,V94 T25X,IE,52.671692,-8.635733
Cork Road,Waterford,X91 RY9K,IE,52.245260,-7.129630
Kylemore Road,Ballyfermot,D12 XE6N,IE,53.327945,-6.343649
6 Fortfield Road,Kimmage,D6W Y271,IE,53.310663,-6.302524
9 Beaumont Road,Whitehall,D09 F3P4,IE,53.385445,-6.233752
647_657 S Circular Rd,Kilmainham,D08 V20D,IE,53.341346,-6.307934
Ashbourne Town,Meath,A84 DC63,IE,53.518798,-6.409088
Cork Airport,Cork,T12 W5FD,IE,51.848352,-8.480992
Main Street,Ballincollig,P31 HX54,IE,51.888265,-8.585408
Cork Road,Mitchelstown,P67 XP22,IE,52.262460,-8.271136
"15 Porters Rd, Coolmine Industrial Estat",Dublin,D15 P97R,IE,53.385307,-6.396481
Hollybrook,Ballywaltrim,A98 K0E3,IE,53.182367,-6.132462
Main Street,Kilcoole,A63 YE00,IE,53.110323,-6.065485
Nangor Road,Clondalkin,D22 V9T7,IE,53.318317,-6.437635
Dublin Road,Wicklow,A67 XK44,IE,52.986220,-6.059006
"Junction 8, M8 Cashel, Waller's-Lot",Cashel,E25 R722,IE,52.509404,-7.872305
Coolshannagh,Monaghan,H18 T282,IE,54.263600,-6.959410
Dublin Road,Athy,R14 T254,IE,52.994339,-6.967306
Ballysimon Rd,Limerick,V94 V1KF,IE,52.652661,-8.593600
Battery Road,Longford,N39 X9C5,IE,53.738753,-7.801677
Collinstown Road,Swords,K67 N4C8,IE,53.428688,-6.234655
Cranley Centre,Dublin 22,D22 E3X6,IE,53.321457,-6.357867
"M8 Junction 3, Tintore",Ballacolla,R32 X8H7,IE,52.866494,-7.480754
Clonshaugh Road,Swords,K67 NH00,IE,53.412465,-6.216488
Monaghan Rd,Clones,H23 Y866,IE,54.181632,-7.226157
"M11 Services Area, Ballyellen",Inch,Y25 V8F8,IE,52.751030,-6.203290
"M6 Service Area, Fossagh, Mount Temple",Moate,N37 N2T0,IE,53.400792,-7.827737
"M9 Service Area, Kilgowan",Kilcullen,R56 T251,IE,53.089000,-6.753795
"Trim Retail Park, Navan Road",Trim,C15 C52C,IE,53.562399,-6.767024
Dublin Road,Arklow,Y14 HK70,IE,52.803034,-6.147974
"Citywest Road, Citywest Business Campus",Citywest,D24 FD72,IE,53.288056,-6.423723
Newtown,Newtown,P75 EE70,IE,51.691137,-9.442250
Junction 5 M9,Rathcrogue,R93 N2X8,IE,52.802665,-6.883146
Kilrush Roundabout,Waterford,X35 VX06,IE,52.092456,-7.634977
Coolcower,Macroom,P12 X721,IE,51.891400,-8.937700
Moorepark West,Fermoy,P61 HP52,IE,52.164120,-8.264648
City North Business Campus,Gormanstown,K32 VR44,IE,53.637671,-6.258343
Main Street,Ashford,A67 EP60,IE,53.011582,-6.108460
Tullow Rd,Carlow,R93 AK57,IE,52.832319,-6.909023
Moybridge,Emyvale,A81,IE,54.399249,-6.975502
Port Road,Letterkenny,F92 HN44,IE,54.952293,-7.725994
16 / 17 Lower O'Connell Street,Dublin 1,D01 R2R6,IE,53.348762,-6.259343
3 & 4 Ballast House,Dublin 2,D02 XF76,IE,53.346660,-6.259467
49 Grafton Street,Dublin 2,D02 KP26,IE,53.340261,-6.260582
4/5 Lower College Green,Dublin 2,D02 TY42,IE,53.344429,-6.261696
Units 1-3 The Atrium (Ground Floor),Dublin 18,D18 E5Y8,IE,53.276451,-6.208992
"Unit B, 24 Oak Road Business Park",Dublin 12,D12 EY18,IE,53.326937,-6.370763
Unit 8 Fonthill Retail Park,Dublin 22,D22 V2F7,IE,53.348359,-6.406303
36 Upper O'Connell Street,Dublin 1,D01 A0X8,IE,53.352598,-6.261100
16 Nassau Street,Dublin 2,D02 YR22,IE,53.343085,-6.258972
"Nutts Corner, Tully Road 11",Crumlin,BT29 4SW,GB,54.641497,-6.155622
200 Andersonstown Road,Belfast,BT119EB,GB,54.572889,-5.992812
43 Warrenpoint Road,Rostrevor,BT34 3EB,GB,54.099375,-6.206476
25 Lisburn Road,Moira,BT67 0JS,GB,54.498402,-6.153326
Lifford Road,Strabane,BT82 8EP,GB,54.830634,-7.477043
62 Silverwood Road,Lurgan,BT666LE,GB,54.468034,-6.367000
"236 Irvinestown Road, Trory",ENNISKILLEN,BT94 2FE,GB,54.385593,-7.641527
50 Moorlough Road,Lisnakea,BT92 0DW,GB,54.244482,-7.438839
"Flush Retail Park, 1A Banbridge Rd",Lurgan,BT66 7EG,GB,54.456114,-6.323856
"351 Sligo Road, Letterbreen",Enniskillen,BT74 9FH,GB,54.309122,-7.733716
204 Glenravel Road,Cargan,BT436RD,GB,54.995625,-6.180107
35 Kilkeel Road,Annalong,BT34 4TJ,GB,54.106473,-5.902602
232 Omagh Road,Garvaghy,BT722DX,GB,54.488339,-7.134710
1 Killylea Road,ARMAGH,BT60 4AN,GB,54.345863,-6.664290
97 Knockmore Road,Lisburn,BT28 2TA,GB,54.517698,-6.077843
Prince Andrew Way,Carrickfergus,BT38 7TU,GB,54.727628,-5.806052
16 Belfast Road,Newry,BT34 1QA,GB,54.187334,-6.335029
2 Ballymena Road,Ballymoney,BT53 7AB,GB,55.070713,-6.503646
34 Clady Road,Portglenone,BT44 8NG,GB,54.872522,-6.488947
162 Station Road,Portstewart,BT55 7PU,GB,55.182386,-6.696542
243-267 Upper Lisburn Road,Belfast,BT10 0LN,GB,54.557223,-5.991565
37 Newry Road,Mayobridge,BT342ET,GB,54.178591,-6.239818
121 Drumaness Road,Ballynahinch,BT248RL,GB,54.369580,-5.853943
1 Moy Road,Armagh,BT617LY,GB,54.355550,-6.657466
40 Priestland Road,Bushmills,BT578XB,GB,55.196049,-6.534671
112 Market Street,Downpatrick,BT306LZ,GB,54.325085,-5.719289
23A Church Street,Banbridge,BT32 4AD,GB,54.353606,-6.268150
105 - 107 Melmount Road,Sion mills,BT82 9PY,GB,54.790799,-7.474107
61A Upper Dromore Road,Warrenpoint,BT343PN,GB,54.113000,-6.260470
82 Derry Road,Omagh,BT785ED,GB,54.610678,-7.323483
323 Beersbridge Road,Belfast,BT55DS,GB,54.592530,-5.889533
1 Lanark Way,Belfast,BT13 3FT,GB,54.603050,-5.959291
60 Antrim Road,Lurgan,BT679BW,GB,54.472074,-6.323596
31 Keady Street,Markethill,BT60 1PN,GB,54.298253,-6.523703
1 Mayfield Link,Mallusk,BT36 4AW,GB,54.672582,-5.983040
Unit 1A,LARNE,BT40 1AX,GB,54.846146,-5.806928
42 Newry Road,Kilkeel,BT34 4DT,GB,54.066776,-6.014500
Warrenpoint Road,NEWRY,BT34 2PF,GB,54.165469,-6.333431
19 Mullaghglass Road,LISBURN,BT28 3SN,GB,54.548316,-6.076412
127 OLD GLENARM ROAD,LARNE,BT40 1NQ,GB,54.856370,-5.815342
Loughshore Road,Belleek,BT93 3FU,GB,54.476380,-8.095222
Clones Road,Newtownbutler,BT92 6JP,GB,54.182120,-7.354965
51 O'Neill Road,NEWTOWNABBEY,BT36 6UN,GB,54.670560,-5.925406
2 Tattymoyle Road,Fintona,BT78 2AS,GB,54.495855,-7.320180
10 Woodburn Road,CARRICKFERGUS,BT38 8HQ,GB,54.718469,-5.820964
82 Dundrum Road,NEWCASTLE,BT33 0LN,GB,54.220348,-5.887183
16 Main Street,Moira,BT67 0LE,GB,54.479308,-6.230468
1 - 19 Dargan Drive,BELFAST,BT3 9JG,GB,54.627072,-5.912697
Unit 1a Redlands Road,LARNE,BT40 1AX,GB,54.845957,-5.805865
A4 Falcon Road,BELFAST,BT12 6SJ,GB,54.578493,-5.958565
804 Feeny Road,LONDONDERRY,BT47 4TA,GB,54.927279,-6.940941
228 Stewartstown Road,BELFAST,BT17 0LB,GB,54.554068,-6.027530
10 Lurgan Road,Aghalee,BT67 0DD,GB,54.519805,-6.271679
139 Garvaghy Road,Portadown,BT62 1EH,GB,54.429003,-6.447960
16 Belfast Road,NEWRY,BT34 1QA,GB,54.187567,-6.336108
2 Carncullagh Road,Dervock,BT53 8BD,GB,55.123173,-6.467716
